NORAD_CAT_ID,OBJECT_NAME,OBJECT_TYPE,EPOCH,MEAN_MOTION,ECCENTRICITY,INCLINATION,RA_OF_ASC_NODE,ARG_OF_PERICENTER,MEAN_ANOMALY,BSTAR,MEAN_MOTION_DOT,MEAN_MOTION_DDOT,TLE_LINE0,TLE_LINE1,TLE_LINE2,SEMIMAJOR_AXIS,PERIOD,APOGEE,PERIGEE,DECAYED
52857.0,STARLINK-4199,PAYLOAD,2023-04-09 01:50:59,15.08824002,0.0001365,53.2173,127.8437,93.9566,266.1583,0.00028679,4.277e-05,0.0,0 STARLINK-4199,1 52857U 22062AD  23099.07707753  .00004277  00000-0  28679-3 0  9993,2 52857  53.2173 127.8437 0001365  93.9566 266.1583 15.08824002 45544,6917.929,95.439,540.739,538.85,0.0
52857.0,STARLINK-4199,PAYLOAD,2023-04-09 08:12:31,15.08840683,0.0001376,53.2173,126.654,90.5804,269.5346,4.6228e-05,4.48e-06,0.0,0 STARLINK-4199,1 52857U 22062AD  23099.34203494  .00000448  00000-0  46228-4 0  9993,2 52857  53.2173 126.6540 0001376  90.5804 269.5346 15.08840683 45587,6917.878,95.438,540.695,538.791,0.0
52857.0,STARLINK-4199,PAYLOAD,2023-04-09 19:20:13,15.0884142,0.0001392,53.2173,124.5727,89.3538,270.7614,4.7059e-05,4.61e-06,0.0,0 STARLINK-4199,1 52857U 22062AD  23099.80571420  .00000461  00000-0  47059-4 0  9999,2 52857  53.2173 124.5727 0001392  89.3538 270.7614 15.08841420 45165,6917.876,95.437,540.704,538.778,0.0
52857.0,STARLINK-4199,PAYLOAD,2023-04-10 08:03:18,15.08843346,0.0001515,53.2178,122.195,80.9362,279.1802,4.998e-05,5.08e-06,0.0,0 STARLINK-4199,1 52857U 22062AD  23100.33563284  .00000508  00000-0  49980-4 0  9996,2 52857  53.2178 122.1950 0001515  80.9362 279.1802 15.08843346 45241,6917.87,95.437,540.783,538.687,0.0
52857.0,STARLINK-4199,PAYLOAD,2023-04-11 04:43:19,15.0883968,0.0001355,53.217,118.3281,87.3527,272.762,7.4108e-05,8.92e-06,0.0,0 STARLINK-4199,1 52857U 22062AD  23101.19675343  .00000892  00000-0  74108-4 0  9997,2 52857  53.2170 118.3281 0001355  87.3527 272.7620 15.08839680 45864,6917.881,95.438,540.684,538.809,0.0
52857.0,STARLINK-4199,PAYLOAD,2023-04-11 07:54:05,15.08841335,0.0001362,53.2173,117.7336,89.0575,271.0573,8.1293e-05,1.006e-05,0.0,0 STARLINK-4199,1 52857U 22062AD  23101.32923214  .00001006  00000-0  81293-4 0  9996,2 52857  53.2173 117.7336 0001362  89.0575 271.0573 15.08841335 45398,6917.876,95.437,540.684,538.799,0.0
52857.0,STARLINK-4199,PAYLOAD,2023-04-11 17:26:24,15.0883758,0.0001393,53.2179,115.9498,90.7907,269.3245,1.7704e-05,-6e-08,0.0,0 STARLINK-4199,1 52857U 22062AD  23101.72667655 -.00000006  00000-0  17704-4 0  9990,2 52857  53.2179 115.9498 0001393  90.7907 269.3245 15.08837580 45455,6917.888,95.438,540.716,538.789,0.0
52857.0,STARLINK-4199,PAYLOAD,2023-04-12 04:34:09,15.08755854,0.0001249,53.2186,113.8682,119.7717,240.34,0.0010796,0.00016896,0.0,0 STARLINK-4199,1 52857U 22062AD  23102.19038322  .00016896  00000-0  10796-2 0  9990,2 52857  53.2186 113.8682 0001249 119.7717 240.3400 15.08755854 46014,6918.138,95.443,540.867,539.139,0.0
52857.0,STARLINK-4199,PAYLOAD,2023-04-12 10:55:39,15.08835609,0.0001595,53.2186,112.6782,108.1948,251.9218,1.7207e-06,-2.61e-06,0.0,0 STARLINK-4199,1 52857U 22062AD  23102.45531905 -.00000261  00000-0  17207-5 0  9991,2 52857  53.2186 112.6782 0001595 108.1948 251.9218 15.08835609 46050,6917.894,95.438,540.862,538.655,0.0
52857.0,STARLINK-4199,PAYLOAD,2023-04-13 09:11:03,15.08835798,0.0001517,53.218,108.5154,103.9268,256.1893,3.0406e-05,1.96e-06,0.0,0 STARLINK-4199,1 52857U 22062AD  23103.38268161  .00000196  00000-0  30406-4 0  9996,2 52857  53.2180 108.5154 0001517 103.9268 256.1893 15.08835798 45709,6917.893,95.438,540.808,538.709,0.0
52857.0,STARLINK-4199,PAYLOAD,2023-04-14 09:01:50,15.0884164,0.0001329,53.2178,104.0547,96.6097,263.5046,0.00010778,1.428e-05,0.0,0 STARLINK-4199,1 52857U 22062AD  23104.37627902  .00001428  00000-0  10778-3 0  9996,2 52857  53.2178 104.0547 0001329  96.6097 263.5046 15.08841640 45853,6917.875,95.437,540.66,538.821,0.0
52857.0,STARLINK-4199,PAYLOAD,2023-04-15 08:52:37,15.08845159,0.0001393,53.2184,99.5926,86.9391,273.1761,0.0001031,1.354e-05,0.0,0 STARLINK-4199,1 52857U 22062AD  23105.36987842  .00001354  00000-0  10310-3 0  9998,2 52857  53.2184  99.5926 0001393  86.9391 273.1761 15.08845159 46490,6917.865,95.437,540.693,538.766,0.0
52857.0,STARLINK-4199,PAYLOAD,2023-04-15 16:49:33,15.08837878,0.0001354,53.2179,98.1072,84.884,275.2307,3.8794e-05,3.3e-06,0.0,0 STARLINK-4199,1 52857U 22062AD  23105.70108486  .00000330  00000-0  38794-4 0  9995,2 52857  53.2179  98.1072 0001354  84.8840 275.2307 15.08837878 46054,6917.887,95.438,540.689,538.815,0.0
52857.0,STARLINK-4199,PAYLOAD,2023-04-16 08:43:24,15.08842794,0.000127,53.2175,95.1324,86.6791,273.4346,2.2798e-05,7.5e-07,0.0,0 STARLINK-4199,1 52857U 22062AD  23106.36348257  .00000075  00000-0  22798-4 0  9993,2 52857  53.2175  95.1324 0001270  86.6791 273.4346 15.08842794 46156,6917.872,95.437,540.615,538.858,0.0
52857.0,STARLINK-4199,PAYLOAD,2023-04-16 16:40:20,15.0884402,0.0001338,53.2179,93.6473,82.9575,277.157,4.0378e-05,3.55e-06,0.0,0 STARLINK-4199,1 52857U 22062AD  23106.69468146  .00000355  00000-0  40378-4 0  9994,2 52857  53.2179  93.6473 0001338  82.9575 277.1570 15.08844020 46202,6917.868,95.437,540.659,538.807,0.0
52857.0,STARLINK-4199,PAYLOAD,2023-04-17 05:23:25,15.08843585,0.0001228,53.2186,91.268,89.7826,270.3307,7.3611e-05,8.84e-06,0.0,0 STARLINK-4199,1 52857U 22062AD  23107.22460096  .00000884  00000-0  73611-4 0  9993,2 52857  53.2186  91.2680 0001228  89.7826 270.3307 15.08843585 46776,6917.869,95.437,540.584,538.885,0.0
52857.0,STARLINK-4199,PAYLOAD,2023-04-17 08:34:11,15.08847368,0.0001183,53.2177,90.6729,99.7104,260.4022,6.4636e-05,7.41e-06,0.0,0 STARLINK-4199,1 52857U 22062AD  23107.35707817  .00000741  00000-0  64636-4 0  9991,2 52857  53.2177  90.6729 0001183  99.7104 260.4022 15.08847368 46309,6917.858,95.437,540.541,538.904,0.0
52857.0,STARLINK-4199,PAYLOAD,2023-04-18 08:24:58,15.08842302,0.0001222,53.2186,86.2115,94.2589,265.8543,7.1937e-05,8.57e-06,0.0,0 STARLINK-4199,1 52857U 22062AD  23108.35068196  .00000857  00000-0  71937-4 0  9992,2 52857  53.2186  86.2115 0001222  94.2589 265.8543 15.08842302 46456,6917.873,95.437,540.584,538.893,0.0
52857.0,STARLINK-4199,PAYLOAD,2023-04-19 08:15:46,15.08840032,0.0001172,53.2182,81.7531,88.2871,271.8256,5.6307e-06,-1.98e-06,0.0,0 STARLINK-4199,1 52857U 22062AD  23109.34428790 -.00000198  00000-0  56307-5 0  9996,2 52857  53.2182  81.7531 0001172  88.2871 271.8256 15.08840032 46608,6917.88,95.438,540.556,538.935,0.0
52857.0,STARLINK-4199,PAYLOAD,2023-04-20 06:31:09,15.08854167,0.000119,53.2187,77.5906,99.0117,261.101,0.00015846,2.236e-05,0.0,0 STARLINK-4199,1 52857U 22062AD  23110.27163423  .00002236  00000-0  15846-3 0  9994,2 52857  53.2187  77.5906 0001190  99.0117 261.1010 15.08854167 47239,6917.837,95.437,540.525,538.879,0.0
52857.0,STARLINK-4199,PAYLOAD,2023-04-20 14:28:05,15.08841579,0.000132,53.2198,76.1024,84.2727,275.8416,0.00011882,1.604e-05,0.0,0 STARLINK-4199,1 52857U 22062AD  23110.60284288  .00001604  00000-0  11882-3 0  9998,2 52857  53.2198  76.1024 0001320  84.2727 275.8416 15.08841579 46790,6917.876,95.437,540.654,538.827,0.0
52857.0,STARLINK-4199,PAYLOAD,2023-04-21 04:46:35,15.08828379,0.0002127,53.2205,73.4278,86.15,273.9736,2.3426e-05,8.4e-07,0.0,0 STARLINK-4199,1 52857U 22062AD  23111.19901988  .00000084  00000-0  23426-4 0  9995,2 52857  53.2205  73.4278 0002127  86.1500 273.9736 15.08828379 47378,6917.916,95.438,541.252,538.309,0.0
52857.0,STARLINK-4199,PAYLOAD,2023-04-21 07:57:21,15.08825842,0.0001172,53.218,72.833,86.1569,273.9558,7.6394e-06,-1.66e-06,0.0,0 STARLINK-4199,1 52857U 22062AD  23111.33150235 -.00000166  00000-0  76394-5 0  9997,2 52857  53.2180  72.8330 0001172  86.1569 273.9558 15.08825842 46908,6917.924,95.438,540.599,538.978,0.0
52857.0,STARLINK-4199,PAYLOAD,2023-04-23 06:03:32,15.08839989,0.0002625,53.2173,64.2086,69.3338,290.7936,0.00021196,3.087e-05,0.0,0 STARLINK-4199,1 52857U 22062AD  23113.25245857  .00003087  00000-0  21196-3 0  9997,2 52857  53.2173  64.2086 0002625  69.3338 290.7936 15.08839989 47684,6917.88,95.438,541.561,537.929,0.0
52857.0,STARLINK-4199,PAYLOAD,2023-04-24 05:54:18,15.0886178,0.0001599,53.2188,59.7479,83.3265,276.7909,0.00025503,3.775e-05,0.0,0 STARLINK-4199,1 52857U 22062AD  23114.24604339  .00003775  00000-0  25503-3 0  9991,2 52857  53.2188  59.7479 0001599  83.3265 276.7909 15.08861780 47834,6917.814,95.436,540.785,538.573,0.0
52857.0,STARLINK-4199,PAYLOAD,2023-04-25 05:45:03,15.08876161,0.0001448,53.2185,55.2864,94.6977,265.4181,0.00051381,7.907e-05,0.0,0 STARLINK-4199,1 52857U 22062AD  23115.23962377  .00007907  00000-0  51381-3 0  9994,2 52857  53.2185  55.2864 0001448  94.6977 265.4181 15.08876161 47496,6917.77,95.435,540.637,538.633,0.0
52857.0,STARLINK-4199,PAYLOAD,2023-04-26 05:35:53,15.08803164,0.0001175,53.2181,50.8279,79.1035,281.0089,-0.00069265,-0.00011283,0.0,0 STARLINK-4199,1 52857U 22062AD  23116.23326265 -.00011283  00000-0 -69265-3 0  9999,2 52857  53.2181  50.8279 0001175  79.1035 281.0089 15.08803164 47644,6917.993,95.44,540.671,539.045,0.0
52857.0,STARLINK-4199,PAYLOAD,2023-04-27 03:51:17,15.08834418,0.0001384,53.2175,46.6653,90.8284,269.2866,-7.6178e-05,-1.5e-05,0.0,0 STARLINK-4199,1 52857U 22062AD  23117.16061525 -.00001500  00000-0 -76178-4 0  9990,2 52857  53.2175  46.6653 0001384  90.8284 269.2866 15.08834418 48271,6917.897,95.438,540.72,538.805,0.0
52857.0,STARLINK-4199,PAYLOAD,2023-04-28 05:17:27,15.08857196,0.0001251,53.2171,41.9084,93.6593,266.4542,0.00068181,0.00010585,0.0,0 STARLINK-4199,1 52857U 22062AD  23118.22045855  .00010585  00000-0  68181-3 0  9991,2 52857  53.2171  41.9084 0001251  93.6593 266.4542 15.08857196 48436,6917.828,95.436,540.558,538.827,0.0
52857.0,STARLINK-4199,PAYLOAD,2023-04-28 11:39:00,15.08852721,9.63e-05,53.217,40.7196,96.7518,263.3584,0.00011809,1.593e-05,0.0,0 STARLINK-4199,1 52857U 22062AD  23118.48541814  .00001593  00000-0  11809-3 0  9999,2 52857  53.2170  40.7196 0000963  96.7518 263.3584 15.08852721 48471,6917.842,95.437,540.373,539.04,0.0
